      2.10          N: GNSS NAV DATA                        RINEX VERSION / TYPE
fic2rin                                 08/22/2024 00:59:02 PGM / RUN BY / DATE
                                                            END OF HEADER
17 24  8 21  9 59 44.0  .649117864668D-03 -.989075488178D-11  .000000000000D+00
     .121000000000D+03 -.704062500000D+02  .464162191361D-08 -.291455281329D+01
    -.349804759026D-05  .134794218466D-01  .855512917042D-05  .515377989388D+04
     .295184000000D+06  .169500708580D-06 -.468789380399D+00  .286847352982D-06
     .967720558131D+00  .213375000000D+03 -.131046153455D+01 -.794211653532D-08
    -.533593654889D-09  .100000000000D+01  .232800000000D+04  .000000000000D+00
     .240000000000D+01  .000000000000D+00 -.111758708954D-07  .121000000000D+03
     .288000000000D+06  .400000000000D+01
5  24  8 21 10  0  0.0 -.183928292245D-03 -.125055521494D-11  .000000000000D+00
     .540000000000D+02  .829375000000D+02  .464626496416D-08 -.252298956313D+01
     .434741377831D-05  .593986676540D-02  .358372926712D-05  .515365564346D+04
     .295200000000D+06  .875443220139D-07  .151685489601D+01 -.130385160446D-07
     .972246949554D+00  .317281250000D+03  .131478542008D+01 -.834999066777D-08
     .333228166005D-09  .100000000000D+01  .232800000000D+04  .000000000000D+00
     .240000000000D+01  .000000000000D+00 -.107102096081D-07  .540000000000D+02
     .288000000000D+06  .400000000000D+01
3  24  8 21 10  0  0.0  .508301891387D-03  .144382283906D-10  .000000000000D+00
     .360000000000D+02  .660312500000D+02  .443339895458D-08  .509006165807D-01
     .349804759026D-05  .573439372238D-02  .308640301228D-05  .515366827774D+04
     .295200000000D+06 -.204890966415D-07  .156934237055D+01  .108033418655D-06
     .985310711449D+00  .331593750000D+03  .115004168890D+01 -.837892044424D-08
     .178578867098D-09  .100000000000D+01  .232800000000D+04  .000000000000D+00
     .240000000000D+01  .000000000000D+00  .139698386192D-08  .360000000000D+02
     .288000000000D+06  .400000000000D+01
2  24  8 21 10  0  0.0 -.374575145543D-03  .773070496507D-11  .000000000000D+00
     .150000000000D+03  .611250000000D+02  .414588697855D-08 -.267272569464D+01
     .321678817272D-05  .160658064997D-01  .132322311401D-04  .515369700623D+04
     .295200000000D+06  .558793544769D-07  .433072270604D+00  .253319740295D-06
     .967378039270D+00  .123562500000D+03 -.114400610291D+01 -.751602735842D-08
     .282154610015D-10  .100000000000D+01  .232800000000D+04  .000000000000D+00
     .240000000000D+01  .000000000000D+00 -.176951289177D-07  .150000000000D+03
     .288000000000D+06  .400000000000D+01
1  24  8 21 10  0  0.0  .216846819967D-03 -.852651282912D-11  .000000000000D+00
     .400000000000D+01  .507187500000D+02  .637419408220D-08 -.141135800116D+01
     .289641320705D-05  .133725085761D-01  .433623790741D-05  .515360210609D+04
     .295200000000D+06  .253319740295D-06 -.156097805597D+01  .130385160446D-06
     .953474764280D+00  .287062500000D+03  .103540919103D+01 -.846606693138D-08
     .507163982558D-09  .100000000000D+01  .232800000000D+04  .000000000000D+00
     .240000000000D+01  .630000000000D+02 -.195577740669D-07  .400000000000D+01
     .288000000000D+06  .400000000000D+01
6  24  8 21 10  0  0.0  .843498855829D-04 -.247837306233D-10  .000000000000D+00
     .600000000000D+02  .732812500000D+02  .362550815982D-08  .150967432354D+01
     .381097197533D-05  .296641793102D-02  .138469040394D-04  .515368741035D+04
     .295200000000D+06  .335276126862D-07  .533222643138D+00 -.316649675369D-07
     .989860999638D+00  .123156250000D+03 -.738719981898D+00 -.756495796801D-08
    -.185722021782D-10  .100000000000D+01  .232800000000D+04  .000000000000D+00
     .240000000000D+01  .000000000000D+00  .372529029846D-08  .600000000000D+02
     .288000000000D+06  .400000000000D+01
7  24  8 21 10  0  0.0 -.485638156533D-04  .557065504836D-11  .000000000000D+00
     .000000000000D+00  .506250000000D+01  .443304179684D-08  .600086942178D+00
     .337138772011D-06  .187062110053D-01  .135228037834D-04  .515362394142D+04
     .295200000000D+06 -.381842255592D-06 -.262379323099D+01  .894069671631D-07
     .950682719294D+00  .119281250000D+03 -.210456077042D+01 -.817426906255D-08
     .161078138122D-09  .100000000000D+01  .232800000000D+04  .000000000000D+00
     .240000000000D+01  .000000000000D+00 -.111758708954D-07  .256000000000D+03
     .288000000000D+06  .400000000000D+01
4  24  8 21 10  0  0.0  .428378582001D-03  .738964445191D-11  .000000000000D+00
     .209000000000D+03 -.112406250000D+03  .443125600817D-08  .311040229948D+01
    -.589527189732D-05  .297032319941D-02  .704824924469D-05  .515371572495D+04
     .295200000000D+06 -.484287738800D-07  .264752763878D+01  .186264514923D-08
     .965810832686D+00  .245500000000D+03 -.299110128184D+01 -.816355433052D-08
    -.518950187787D-09  .100000000000D+01  .232800000000D+04  .000000000000D+00
     .240000000000D+01  .000000000000D+00 -.465661287308D-08  .977000000000D+03
     .288000000000D+06  .400000000000D+01
22 24  8 21 10  0  0.0 -.535822473466D-04 -.409272615798D-11  .000000000000D+00
     .800000000000D+01  .456875000000D+02  .502235205827D-08 -.235082671607D+01
     .271201133728D-05  .141697460786D-01  .395812094212D-05  .515368514061D+04
     .295200000000D+06  .782310962677D-07 -.148666346772D+01  .221654772758D-06
     .960179170082D+00  .299343750000D+03 -.112410771795D+01 -.830820321287D-08
     .470733893670D-09  .100000000000D+01  .232800000000D+04  .000000000000D+00
     .240000000000D+01  .000000000000D+00 -.111758708954D-07  .800000000000D+01
     .288000000000D+06  .400000000000D+01
12 24  8 21 10  0  0.0 -.532019883394D-03 -.295585778076D-11  .000000000000D+00
     .230000000000D+02  .460937500000D+02  .511057001861D-08 -.130919147297D+00
     .213272869587D-05  .866949069314D-02  .497512519360D-05  .515359834290D+04
     .295200000000D+06 -.104308128357D-06 -.150773638133D+01  .186264514923D-07
     .961411181172D+00  .288500000000D+03  .146192981520D+01 -.864571727168D-08
     .479662837025D-09  .100000000000D+01  .232800000000D+04  .000000000000D+00
     .240000000000D+01  .000000000000D+00 -.125728547573D-07  .230000000000D+02
     .288000000000D+06  .400000000000D+01
32 24  8 21 10  0  0.0 -.604120083153D-03  .295585778076D-11  .000000000000D+00
     .160000000000D+02 -.114312500000D+03  .445875715370D-08 -.213883930217D+01
    -.582635402679D-05  .782931735739D-02  .597350299358D-05  .515371562004D+04
     .295200000000D+06  .782310962677D-07  .260230683236D+01 -.193715095520D-06
     .962811910604D+00  .267625000000D+03 -.213411007715D+01 -.810283751571D-08
    -.465733685392D-09  .100000000000D+01  .232800000000D+04  .000000000000D+00
     .240000000000D+01  .000000000000D+00  .931322574615D-09  .160000000000D+02
     .288000000000D+06  .400000000000D+01
31 24  8 21 10  0  0.0 -.225636642426D-03  .341060513165D-12  .000000000000D+00
     .490000000000D+02  .603125000000D+01  .427410660512D-08 -.377818142945D+00
     .566244125366D-06  .105708758347D-01  .127460807562D-04  .515377919197D+04
     .295200000000D+06  .875443220139D-07 -.260192449141D+01  .134110450745D-06
     .954623289560D+00  .132000000000D+03  .711765316911D+00 -.807569352791D-08
     .382515933324D-09  .100000000000D+01  .232800000000D+04  .000000000000D+00
     .240000000000D+01  .000000000000D+00 -.135041773319D-07  .490000000000D+02
     .288000000000D+06  .400000000000D+01
30 24  8 21 10  0  0.0 -.336075667292D-03  .682121026330D-11  .000000000000D+00
     .370000000000D+02  .862500000000D+01  .462554981557D-08  .453133490052D+00
     .508502125740D-06  .718401093036D-02  .140722841024D-04  .515360553741D+04
     .295200000000D+06 -.931322574615D-07 -.262447886998D+01  .240281224251D-06
     .935834794213D+00  .963125000000D+02 -.244656599414D+01 -.812962434577D-08
     .327156484524D-09  .100000000000D+01  .232800000000D+04  .000000000000D+00
     .240000000000D+01  .000000000000D+00  .419095158577D-08  .370000000000D+02
     .288000000000D+06  .400000000000D+01
24 24  8 21 10  0  0.0 -.486501026899D-03 -.454747350886D-12  .000000000000D+00
     .850000000000D+02 -.401875000000D+02  .462769276198D-08  .156356334528D+01
    -.202096998692D-05  .157208970049D-01  .145398080349D-04  .515371898079D+04
     .295200000000D+06 -.325962901115D-06 -.272229730720D+01 -.707805156708D-07
     .934464870910D+00  .872187500000D+02  .999024234261D+00 -.827784480546D-08
     .156077929844D-09  .100000000000D+01  .232800000000D+04  .000000000000D+00
     .240000000000D+01  .000000000000D+00  .232830643654D-08  .850000000000D+02
     .288000000000D+06  .400000000000D+01
27 24  8 21 10  0  0.0 -.332710333169D-04 -.454747350886D-12  .000000000000D+00
     .710000000000D+02 -.714375000000D+02  .482091509618D-08 -.279364032117D+01
    -.389479100704D-05  .125617599115D-01  .771321356297D-05  .515368099022D+04
     .295200000000D+06  .745058059692D-07 -.537630084691D+00 -.312924385071D-06
     .960910087842D+00  .230281250000D+03  .797409389382D+00 -.813819613139D-08
    -.472876840076D-09  .100000000000D+01  .232800000000D+04  .000000000000D+00
     .240000000000D+01  .000000000000D+00  .186264514923D-08  .710000000000D+02
     .288000000000D+06  .400000000000D+01
16 24  8 21 10  0  0.0 -.202689319849D-03  .103455022327D-10  .000000000000D+00
     .900000000000D+02  .420312500000D+02  .497056418681D-08 -.189686059010D+01
     .196322798729D-05  .138692422770D-01  .384449958801D-05  .515360242653D+04
     .295200000000D+06  .165775418282D-06 -.148996120398D+01 -.577419996262D-07
     .960845454659D+00  .297250000000D+03  .842106776876D+00 -.832248952224D-08
     .539665336370D-09  .100000000000D+01  .232800000000D+04  .000000000000D+00
     .240000000000D+01  .000000000000D+00 -.102445483208D-07  .900000000000D+02
     .288000000000D+06  .400000000000D+01
